OBJECT_NAME,OBJECT_ID,EPOCH,MEAN_MOTION,ECCENTRICITY,INCLINATION,RA_OF_ASC_NODE,ARG_OF_PERICENTER,MEAN_ANOMALY,EPHEMERIS_TYPE,CLASSIFICATION_TYPE,NORAD_CAT_ID,ELEMENT_SET_NO,REV_AT_EPOCH,BSTAR,MEAN_MOTION_DOT,MEAN_MOTION_DDOT
SIRION PATHFINDER-2,2018-099B,2026-05-12T00:54:59.958144,15.14209722,.0010282,97.4283,181.9589,70.4828,289.7514,0,U,43759,999,40715,.15899E-3,.2842E-4,0
CORVUS BC4,2018-099K,2026-05-12T01:29:42.241344,15.12194262,.0009864,97.4099,176.1031,121.2301,238.9897,0,U,43767,999,40694,.17556E-3,.297E-4,0
M2 PATHFINDER,2020-037E,2026-05-12T01:37:29.508960,15.04516252,.001019,97.8166,322.8955,275.7457,84.2606,0,U,45727,999,32006,.13254E-3,.1794E-4,0
NETSAT-4,2020-068U,2026-05-11T22:38:17.353824,15.42648346,.0007651,97.8619,137.3083,93.0187,267.1935,0,U,46504,999,31018,.27238E-3,.11783E-3,0
NETSAT-3,2020-068V,2026-05-11T23:39:50.787936,15.41419191,.0007521,97.8669,135.6185,105.6602,254.5474,0,U,46505,999,31010,.27974E-3,.11616E-3,0
NETSAT-1,2020-068W,2026-05-11T22:28:17.965056,15.33747553,.0006707,97.8753,130.3135,124.8065,235.3808,0,U,46506,999,30974,.26059E-3,.8423E-4,0
NETSAT-2,2020-068X,2026-05-11T23:08:36.578400,15.44446474,.0006189,97.8635,137.1038,113.6437,246.5460,0,U,46507,999,31014,.3164E-3,.1456E-3,0
GREENCUBE (IO-117),2022-080E,2026-05-11T22:06:15.720192,6.42583324,.0008864,70.1440,310.8630,297.9634,62.0128,0,U,53109,999,8973,0,-.3E-7,0
SITRO-AIS 5 (KATYS),2023-091L,2026-05-12T03:23:12.425856,15.28613672,.0010654,97.5084,195.7183,222.8931,137.1478,0,U,57176,999,15883,.25242E-3,.6959E-4,0
SITRO-AIS 6 (CHIRKIN),2023-091AC,2026-05-12T04:04:44.126688,15.25244586,.0010826,97.5090,195.0529,226.5576,133.4762,0,U,57192,999,15879,.14538E-3,.3585E-4,0
SITRO-AIS 8 (ANOKHIN),2023-091AD,2026-05-12T03:41:42.081792,15.31145990,.0009963,97.5078,197.1781,217.9906,142.0633,0,U,57193,999,15893,.2531E-3,.7546E-4,0
SITRO-AIS 7 (FARTUSHNIY),2023-091AE,2026-05-12T03:58:57.661824,15.24950917,.0010631,97.5087,194.8919,227.8191,132.2145,0,U,57194,999,15878,.14382E-3,.3514E-4,0
SITRO-AIS 10 (BURDAEV),2023-091AK,2026-05-12T03:17:25.777824,15.37232516,.0006965,97.5099,201.8555,188.8393,171.2730,0,U,57199,999,15922,.31418E-3,.11385E-3,0
SITRO-AIS 9 (SHCHUKIN),2023-091AM,2026-05-12T03:39:41.127840,15.36779555,.0007163,97.5097,201.6283,189.6575,170.4532,0,U,57201,999,15921,.31896E-3,.11392E-3,0
SITRO-AIS 12 (SMIRENNIY),2023-091AQ,2026-05-12T03:35:52.044288,15.37064104,.0006988,97.5109,202.0706,183.5179,176.6017,0,U,57204,999,15923,.3284E-3,.1184E-3,0
SITRO-AIS 11 (SHEFFER),2023-091AU,2026-05-12T04:08:56.425056,15.37455797,.0006904,97.5107,202.3189,183.2125,176.9076,0,U,57208,999,15925,.31057E-3,.11334E-3,0
SITRO-AIS 25,2024-039R,2026-05-12T04:38:58.718688,14.93256410,.0147502,95.3921,210.3627,93.9637,267.8464,0,U,59066,999,11935,.21714E-3,.2781E-4,0
SITRO-AIS 26,2024-039S,2026-05-12T04:33:59.259744,14.93059401,.0147845,95.3924,210.2653,94.5023,267.3108,0,U,59067,999,11934,.2146E-3,.2736E-4,0
SITRO-AIS 27,2024-039T,2026-05-12T04:05:32.692128,14.93470251,.0147017,95.3922,210.5067,93.3037,268.5019,0,U,59068,999,11936,.27159E-3,.3503E-4,0
SITRO-AIS 28,2024-039U,2026-05-12T05:10:44.114304,14.93503905,.0146777,95.3925,210.5832,93.0062,268.7971,0,U,59071,999,11937,.24372E-3,.3141E-4,0
GRBBETA,2024-128C,2026-05-12T04:16:52.688640,15.06337354,.0045387,61.9909,342.5749,127.2263,233.2985,0,U,60237,999,10084,.18359E-3,.2553E-4,0
OOV-CUBE (TUBSAT-30),2024-128F,2026-05-12T04:31:38.532288,15.02586412,.0048994,61.9951,351.0812,125.9073,234.6581,0,U,60240,999,10070,.12464E-3,.1492E-4,0
ROBUSTA-3A (MEDITERRANEE),2024-128J,2026-05-12T03:27:11.219040,15.11098870,.004615,61.9874,335.6503,121.0191,239.5448,0,U,60243,999,10097,.28389E-3,.4671E-4,0
LASARSAT,2024-247Q,2026-05-11T15:26:10.158432,15.44103362,.00045957,44.9739,107.1922,109.5737,250.5648,0,U,62391,999,7766,.44752778E-3,.2063E-3,0
CROCUBE,2024-247T,2026-05-12T03:13:12.097056,15.45705886,.0004352,44.9710,102.3126,115.2667,244.8674,0,U,62394,999,7776,.46581E-3,.22716E-3,0
FORESAIL-1 PRIME,2025-276DS,2026-05-11T14:55:51.831552,15.18360338,.00016791,97.4208,205.5700,192.8130,167.3062,0,U,66778,999,2485,.15972154E-3,.3214E-4,0
KNACKSAT-2,1998-067XZ,2026-05-12T04:20:52.273248,15.56832181,.0012571,51.6275,115.1313,65.5915,294.6387,0,U,67683,999,1466,.37954E-3,.27445E-3,0
