SIRION PATHFINDER-2     
1 43759U 18099B   26132.03819396  .00002842  00000+0  15899-3 0  9998
2 43759  97.4283 181.9589 0010282  70.4828 289.7514 15.14209722407152
CORVUS BC4              
1 43767U 18099K   26132.06229446  .00002970  00000+0  17556-3 0  9995
2 43767  97.4099 176.1031 0009864 121.2301 238.9897 15.12194262406945
M2 PATHFINDER           
1 45727U 20037E   26132.06770265  .00001794  00000+0  13254-3 0  9992
2 45727  97.8166 322.8955 0010190 275.7457  84.2606 15.04516252320064
NETSAT-4                
1 46504U 20068U   26131.94325641  .00011783  00000+0  27238-3 0  9996
2 46504  97.8619 137.3083 0007651  93.0187 267.1935 15.42648346310182
NETSAT-3                
1 46505U 20068V   26131.98600449  .00011616  00000+0  27974-3 0  9995
2 46505  97.8669 135.6185 0007521 105.6602 254.5474 15.41419191310103
NETSAT-1                
1 46506U 20068W   26131.93631904  .00008423  00000+0  26059-3 0  9996
2 46506  97.8753 130.3135 0006707 124.8065 235.3808 15.33747553309749
NETSAT-2                
1 46507U 20068X   26131.96431225  .00014560  00000+0  31640-3 0  9995
2 46507  97.8635 137.1038 0006189 113.6437 246.5460 15.44446474310143
GREENCUBE (IO-117)      
1 53109U 22080E   26131.92101528 -.00000003  00000+0  00000+0 0  9993
2 53109  70.1440 310.8630 0008864 297.9634  62.0128  6.42583324 89736
SITRO-AIS 5 (KATYS)     
1 57176U 23091L   26132.14111604  .00006959  00000+0  25242-3 0  9999
2 57176  97.5084 195.7183 0010654 222.8931 137.1478 15.28613672158835
SITRO-AIS 6 (CHIRKIN)   
1 57192U 23091AC  26132.16995517  .00003585  00000+0  14538-3 0  9990
2 57192  97.5090 195.0529 0010826 226.5576 133.4762 15.25244586158795
SITRO-AIS 8 (ANOKHIN)   
1 57193U 23091AD  26132.15395928  .00007546  00000+0  25310-3 0  9991
2 57193  97.5078 197.1781 0009963 217.9906 142.0633 15.31145990158931
SITRO-AIS 7 (FARTUSHNIY)
1 57194U 23091AE  26132.16594516  .00003514  00000+0  14382-3 0  9995
2 57194  97.5087 194.8919 0010631 227.8191 132.2145 15.24950917158786
SITRO-AIS 10 (BURDAEV)  
1 57199U 23091AK  26132.13710391  .00011385  00000+0  31418-3 0  9992
2 57199  97.5099 201.8555 0006965 188.8393 171.2730 15.37232516159229
SITRO-AIS 9 (SHCHUKIN)  
1 57201U 23091AM  26132.15255935  .00011392  00000+0  31896-3 0  9994
2 57201  97.5097 201.6283 0007163 189.6575 170.4532 15.36779555159217
SITRO-AIS 12 (SMIRENNIY)
1 57204U 23091AQ  26132.14990792  .00011840  00000+0  32840-3 0  9991
2 57204  97.5109 202.0706 0006988 183.5179 176.6017 15.37064104159232
SITRO-AIS 11 (SHEFFER)  
1 57208U 23091AU  26132.17287529  .00011334  00000+0  31057-3 0  9992
2 57208  97.5107 202.3189 0006904 183.2125 176.9076 15.37455797159250
SITRO-AIS 25            
1 59066U 24039R   26132.19373517  .00002781  00000+0  21714-3 0  9999
2 59066  95.3921 210.3627 0147502  93.9637 267.8464 14.93256410119355
SITRO-AIS 26            
1 59067U 24039S   26132.19026921  .00002736  00000+0  21460-3 0  9992
2 59067  95.3924 210.2653 0147845  94.5023 267.3108 14.93059401119343
SITRO-AIS 27            
1 59068U 24039T   26132.17051727  .00003503  00000+0  27159-3 0  9997
2 59068  95.3922 210.5067 0147017  93.3037 268.5019 14.93470251119363
SITRO-AIS 28            
1 59071U 24039U   26132.21578836  .00003141  00000+0  24372-3 0  9993
2 59071  95.3925 210.5832 0146777  93.0062 268.7971 14.93503905119370
GRBBETA                 
1 60237U 24128C   26132.17838760  .00002553  00000+0  18359-3 0  9992
2 60237  61.9909 342.5749 0045387 127.2263 233.2985 15.06337354100840
OOV-CUBE (TUBSAT-30)    
1 60240U 24128F   26132.18864042  .00001492  00000+0  12464-3 0  9991
2 60240  61.9951 351.0812 0048994 125.9073 234.6581 15.02586412100707
ROBUSTA-3A (MEDITERRAN*)
1 60243U 24128J   26132.14387985  .00004671  00000+0  28389-3 0  9991
2 60243  61.9874 335.6503 0046150 121.0191 239.5448 15.11098870100970
LASARSAT                
1 62391U 24247Q   26131.64317313  .00020630  00000+0  44753-3 0  9997
2 62391  44.9739 107.1922 0004595 109.5737 250.5648 15.44103362 77661
CROCUBE                 
1 62394U 24247T   26132.13416779  .00022716  00000+0  46581-3 0  9999
2 62394  44.9710 102.3126 0004352 115.2667 244.8674 15.45705886 77769
FORESAIL-1 PRIME        
1 66778U 25276DS  26131.62212768  .00003214  00000+0  15972-3 0  9999
2 66778  97.4208 205.5700 0001679 192.8130 167.3062 15.18360338 24854
KNACKSAT-2              
1 67683U 98067XZ  26132.18116057  .00027445  00000+0  37954-3 0  9995
2 67683  51.6275 115.1313 0012571  65.5915 294.6387 15.56832181 14666
